NORAD_CAT_ID,OBJECT_NAME,OBJECT_TYPE,EPOCH,MEAN_MOTION,ECCENTRICITY,INCLINATION,RA_OF_ASC_NODE,ARG_OF_PERICENTER,MEAN_ANOMALY,BSTAR,MEAN_MOTION_DOT,MEAN_MOTION_DDOT,TLE_LINE0,TLE_LINE1,TLE_LINE2,SEMIMAJOR_AXIS,PERIOD,APOGEE,PERIGEE,DECAYED
49724.0,STARLINK-3219,PAYLOAD,2023-01-16 22:57:16,15.0882989,0.0001493,53.2146,261.502,82.8136,277.3026,0.00040702,6.194e-05,0.0,0 STARLINK-3219,1 49724U 21115A   23016.95644519  .00006194  00000-0  40702-3 0  9997,2 49724  53.2146 261.5020 0001493  82.8136 277.3026 15.08829890 63376,6917.911,95.438,540.809,538.743,0.0
49724.0,STARLINK-3219,PAYLOAD,2023-01-17 00:32:40,15.08823123,0.0001464,53.2151,261.2052,87.0063,273.1097,0.0015994,0.00025246,0.0,0 STARLINK-3219,1 49724U 21115A   23017.02268784  .00025246  00000-0  15994-2 0  9995,2 49724  53.2151 261.2052 0001464  87.0063 273.1097 15.08823123 62271,6917.932,95.439,540.81,538.784,0.0
49724.0,STARLINK-3219,PAYLOAD,2023-01-18 08:20:23,15.08856778,0.0001478,53.2152,255.2581,91.1701,268.946,0.0011464,0.00018012,0.0,0 STARLINK-3219,1 49724U 21115A   23018.34749059  .00018012  00000-0  11464-2 0  9991,2 49724  53.2152 255.2581 0001478  91.1701 268.9460 15.08856778 63585,6917.829000000001,95.436,540.717,538.672,0.0
49724.0,STARLINK-3219,PAYLOAD,2023-01-18 22:38:51,15.08854307,0.0001345,53.2148,252.5823,102.4601,257.6541,0.00051911,7.987e-05,0.0,0 STARLINK-3219,1 49724U 21115A   23018.94364595  .00007987  00000-0  51911-3 0  9996,2 49724  53.2148 252.5823 0001345 102.4601 257.6541 15.08854307 63678,6917.837,95.437,540.632,538.771,0.0
49724.0,STARLINK-3219,PAYLOAD,2023-01-19 08:11:09,15.08845812,0.0001699999999999,53.2144,250.7973,80.7966,279.3219,0.00017674,2.526e-05,0.0,0 STARLINK-3219,1 49724U 21115A   23019.34108794  .00002526  00000-0  17674-3 0  9990,2 49724  53.2144 250.7973 0001700  80.7966 279.3219 15.08845812 63738,6917.863,95.437,540.904,538.552,0.0
49724.0,STARLINK-3219,PAYLOAD,2023-01-20 01:40:24,15.08838642,0.0001357,53.2139,247.5259,81.1013,279.0132,0.00025856,3.829e-05,0.0,0 STARLINK-3219,1 49724U 21115A   23020.06973284  .00003829  00000-0  25856-3 0  9993,2 49724  53.2139 247.5259 0001357  81.1013 279.0132 15.08838642 63845,6917.885,95.438,540.688,538.811,0.0
49724.0,STARLINK-3219,PAYLOAD,2023-01-20 08:01:57,15.08839596,0.0001245,53.2139,246.3364,83.5107,276.6027,0.00076116,0.00011847,0.0,0 STARLINK-3219,1 49724U 21115A   23020.33469399  .00011847  00000-0  76116-3 0  9994,2 49724  53.2139 246.3364 0001245  83.5107 276.6027 15.08839596 62771,6917.882,95.438,540.6080000000001,538.885,0.0
49724.0,STARLINK-3219,PAYLOAD,2023-01-21 07:52:44,15.08850705,0.000138,53.2134,241.8762,81.7399,278.3749,0.00050025,7.685e-05,0.0,0 STARLINK-3219,1 49724U 21115A   23021.32829117  .00007685  00000-0  50025-3 0  9998,2 49724  53.2134 241.8762 0001380  81.7399 278.3749 15.08850705 64037,6917.848000000001,95.437,540.6669999999999,538.758,0.0
49724.0,STARLINK-3219,PAYLOAD,2023-01-22 14:05:04,15.08841957,0.0001374,53.2136,236.2277,78.8083,281.3063,0.00014337,1.995e-05,0.0,0 STARLINK-3219,1 49724U 21115A   23022.58685242  .00001995  00000-0  14337-3 0  9990,2 49724  53.2136 236.2277 0001374  78.8083 281.3063 15.08841957 64221,6917.874,95.437,540.69,538.789,0.0
49724.0,STARLINK-3219,PAYLOAD,2023-01-23 13:55:51,15.08840028,0.0001069,53.2126,231.7658,81.2324,278.8789,0.0001624,2.298e-05,0.0,0 STARLINK-3219,1 49724U 21115A   23023.58045316  .00002298  00000-0  16240-3 0  9995,2 49724  53.2126 231.7658 0001069  81.2324 278.8789 15.08840028 64370,6917.88,95.438,540.485,539.006,0.0
49724.0,STARLINK-3219,PAYLOAD,2023-01-24 20:08:10,15.08846502,0.0001127999999999,53.2144,226.1148,90.0346,270.0775,0.00014057,1.95e-05,0.0,0 STARLINK-3219,1 49724U 21115A   23024.83900886  .00001950  00000-0  14057-3 0  9994,2 49724  53.2144 226.1148 0001128  90.0346 270.0775 15.08846502 64563,6917.861,95.437,540.506,538.945,0.0
49724.0,STARLINK-3219,PAYLOAD,2023-01-25 13:37:25,15.08836236,0.0001189999999999,53.2158,222.8438,93.0748,267.0381,5.6801e-05,6.16e-06,0.0,0 STARLINK-3219,1 49724U 21115A   23025.56765542  .00000616  00000-0  56801-4 0  9995,2 49724  53.2158 222.8438 0001190  93.0748 267.0381 15.08836236 64675,6917.892,95.438,540.58,538.934,0.0
49724.0,STARLINK-3219,PAYLOAD,2023-01-25 19:58:57,15.08838054,0.0001161,53.2156,221.6543,93.5708,266.5417,6.009100000000001e-05,6.69e-06,0.0,0 STARLINK-3219,1 49724U 21115A   23025.83261386  .00000669  00000-0  60091-4 0  9996,2 49724  53.2156 221.6543 0001161  93.5708 266.5417 15.08838054 63602,6917.886,95.438,540.555,538.948,0.0
49724.0,STARLINK-3219,PAYLOAD,2023-01-26 11:52:49,15.08838879,0.0001145,53.2153,218.6801,90.3883,269.724,2.1609e-05,5.6e-07,0.0,0 STARLINK-3219,1 49724U 21115A   23026.49501473  .00000056  00000-0  21609-4 0  9995,2 49724  53.2153 218.6801 0001145  90.3883 269.7240 15.08838879 63708,6917.884,95.438,540.5409999999999,538.957,0.0
49724.0,STARLINK-3219,PAYLOAD,2023-01-26 19:49:44,15.08840638,0.0001135,53.2154,217.1933,90.1952,269.91700000000003,3.0176e-05,1.92e-06,0.0,0 STARLINK-3219,1 49724U 21115A   23026.82621319  .00000192  00000-0  30176-4 0  9994,2 49724  53.2154 217.1933 0001135  90.1952 269.9170 15.08840638 64861,6917.878000000001,95.438,540.529,538.9580000000001,0.0
49724.0,STARLINK-3219,PAYLOAD,2023-01-27 13:18:59,15.08830479,0.000111,53.2153,213.922,89.7591,270.3528,3.7849e-05,3.14e-06,0.0,0 STARLINK-3219,1 49724U 21115A   23027.55486090  .00000314  00000-0  37849-4 0  9990,2 49724  53.2153 213.9220 0001110  89.7591 270.3528 15.08830479 64976,6917.909000000001,95.438,540.5419999999999,539.007,0.0
49724.0,STARLINK-3219,PAYLOAD,2023-01-27 19:40:32,15.08834605,0.0001102,53.2153,212.7325,89.6047,270.5071,4.2434e-05,3.88e-06,0.0,0 STARLINK-3219,1 49724U 21115A   23027.81981917  .00000388  00000-0  42434-4 0  9994,2 49724  53.2153 212.7325 0001102  89.6047 270.5071 15.08834605 63907,6917.897,95.438,540.524,539.0,0.0
49724.0,STARLINK-3219,PAYLOAD,2023-01-28 05:12:50,15.08839349,0.0001109,53.2154,210.9483,88.405,271.7069,6.2857e-05,7.13e-06,0.0,0 STARLINK-3219,1 49724U 21115A   23028.21725600  .00000713  00000-0  62857-4 0  9997,2 49724  53.2154 210.9483 0001109  88.4050 271.7069 15.08839349 65071,6917.882,95.438,540.515,538.98,0.0
49724.0,STARLINK-3219,PAYLOAD,2023-01-28 11:34:23,15.08841246,0.0001105,53.2157,209.7589,89.0402,271.0717,9.8548e-05,1.281e-05,0.0,0 STARLINK-3219,1 49724U 21115A   23028.48221388  .00001281  00000-0  98548-4 0  9997,2 49724  53.2157 209.7589 0001105  89.0402 271.0717 15.08841246 64005,6917.877,95.437,540.506,538.977,0.0
49724.0,STARLINK-3219,PAYLOAD,2023-01-28 19:31:18,15.08845362,0.0001104,53.2157,208.272,88.479,271.6329,0.00010588,1.398e-05,0.0,0 STARLINK-3219,1 49724U 21115A   23028.81341071  .00001398  00000-0  10588-3 0  9992,2 49724  53.2157 208.2720 0001104  88.4790 271.6329 15.08845362 64051,6917.864,95.437,540.493,538.965,0.0
49724.0,STARLINK-3219,PAYLOAD,2023-01-29 11:25:10,15.08837575,0.0001109,53.2152,205.2973,82.7126,277.3992,9.2647e-05,1.187e-05,0.0,0 STARLINK-3219,1 49724U 21115A   23029.47581576  .00001187  00000-0  92647-4 0  9994,2 49724  53.2152 205.2973 0001109  82.7126 277.3992 15.08837575 65268,6917.888,95.438,540.52,538.986,0.0
49724.0,STARLINK-3219,PAYLOAD,2023-01-29 20:57:29,15.08839565,0.0001128,53.2155,203.513,83.1847,276.9274,5.9409e-05,6.58e-06,0.0,0 STARLINK-3219,1 49724U 21115A   23029.87325618  .00000658  00000-0  59409-4 0  9992,2 49724  53.2155 203.5130 0001128  83.1847 276.9274 15.08839565 64216,6917.882,95.438,540.527,538.966,0.0
49724.0,STARLINK-3219,PAYLOAD,2023-01-30 11:15:57,15.08842262,0.000121,53.2155,200.8368,81.2359,278.877,-1.0291e-06,-3.04e-06,0.0,0 STARLINK-3219,1 49724U 21115A   23030.46941622 -.00000304  00000-0 -10291-5 0  9995,2 49724  53.2155 200.8368 0001210  81.2359 278.8770 15.08842262 64308,6917.873,95.437,540.576,538.901,0.0
49724.0,STARLINK-3219,PAYLOAD,2023-01-30 20:48:16,15.08845539,0.0001295,53.2157,199.0533,77.2683,282.8454,2.7788e-05,1.54e-06,0.0,0 STARLINK-3219,1 49724U 21115A   23030.86685227  .00000154  00000-0  27788-4 0  9994,2 49724  53.2157 199.0533 0001295  77.2683 282.8454 15.08845539 65474,6917.863,95.437,540.624,538.833,0.0
49724.0,STARLINK-3219,PAYLOAD,2023-01-31 11:06:44,15.08836093,0.0001227,53.215,196.3765,79.182,280.931,3.1961e-05,2.21e-06,0.0,0 STARLINK-3219,1 49724U 21115A   23031.46301735  .00000221  00000-0  31961-4 0  9993,2 49724  53.2150 196.3765 0001227  79.1820 280.9310 15.08836093 65568,6917.892,95.438,540.606,538.909,0.0
49724.0,STARLINK-3219,PAYLOAD,2023-02-01 09:22:08,15.08839106,0.0001337,53.2136,192.2132,77.2981,282.816,3.9735e-05,3.45e-06,0.0,0 STARLINK-3219,1 49724U 21115A   23032.39037579  .00000345  00000-0  39735-4 0  9992,2 49724  53.2136 192.2132 0001337  77.2981 282.8160 15.08839106 64598,6917.883,95.438,540.673,538.823,0.0
49724.0,STARLINK-3219,PAYLOAD,2023-02-02 02:51:23,15.08836039,0.0001344,53.2135,188.942,80.415,279.6994,1.5302e-05,-4.4e-07,0.0,0 STARLINK-3219,1 49724U 21115A   23033.11901859 -.00000044  00000-0  15302-4 0  9995,2 49724  53.2135 188.9420 0001344  80.4150 279.6994 15.08836039 65818,6917.892,95.438,540.687,538.828,0.0
49724.0,STARLINK-3219,PAYLOAD,2023-02-02 10:48:19,15.08829952,0.0001106,53.2143,187.455,86.7314,273.3805,8.1198e-05,1.004e-05,0.0,0 STARLINK-3219,1 49724U 21115A   23033.45022021  .00001004  00000-0  81198-4 0  9999,2 49724  53.2143 187.4550 0001106  86.7314 273.3805 15.08829952 64752,6917.911,95.438,540.541,539.011,0.0
49724.0,STARLINK-3219,PAYLOAD,2023-02-03 10:39:06,15.08829018,0.0001095,53.214,182.9949,94.1178,265.994,-7.1808e-06,-4.02e-06,0.0,0 STARLINK-3219,1 49724U 21115A   23034.44382499 -.00000402  00000-0 -71808-5 0  9998,2 49724  53.2140 182.9949 0001095  94.1178 265.9940 15.08829018 66010,6917.914,95.438,540.536,539.021,0.0
